CCSDS_OMM_VERS = 2.0
CREATION_DATE  = 
ORIGINATOR     = 

OBJECT_NAME    = ISS (ZARYA)
OBJECT_ID      = 1998-067A
CENTER_NAME    = EARTH
REF_FRAME      = TEME
TIME_SYSTEM    = UTC
MEAN_ELEMENT_THEORY = SGP/SGP4

EPOCH          = 2026-03-20T20:55:56.726976
MEAN_MOTION    = 15.48402839
ECCENTRICITY   = .0006366
INCLINATION    = 51.6346
RA_OF_ASC_NODE = 17.0785
ARG_OF_PERICENTER = 213.2716
MEAN_ANOMALY   = 146.7873

EPHEMERIS_TYPE = 0
CLASSIFICATION_TYPE = U
NORAD_CAT_ID   = 25544
ELEMENT_SET_NO = 999
REV_AT_EPOCH   = 55806
BSTAR          = .18573E-3
MEAN_MOTION_DOT = .959E-4
MEAN_MOTION_DDOT = 0

CCSDS_OMM_VERS = 2.0
CREATION_DATE  = 
ORIGINATOR     = 

OBJECT_NAME    = POISK
OBJECT_ID      = 2009-060A
CENTER_NAME    = EARTH
REF_FRAME      = TEME
TIME_SYSTEM    = UTC
MEAN_ELEMENT_THEORY = SGP/SGP4

EPOCH          = 2026-03-20T20:55:56.726976
MEAN_MOTION    = 15.48402839
ECCENTRICITY   = .0006366
INCLINATION    = 51.6346
RA_OF_ASC_NODE = 17.0785
ARG_OF_PERICENTER = 213.2716
MEAN_ANOMALY   = 146.7873

EPHEMERIS_TYPE = 0
CLASSIFICATION_TYPE = U
NORAD_CAT_ID   = 36086
ELEMENT_SET_NO = 999
REV_AT_EPOCH   = 55782
BSTAR          = .18573E-3
MEAN_MOTION_DOT = .959E-4
MEAN_MOTION_DDOT = 0

CCSDS_OMM_VERS = 2.0
CREATION_DATE  = 
ORIGINATOR     = 

OBJECT_NAME    = CSS (TIANHE)
OBJECT_ID      = 2021-035A
CENTER_NAME    = EARTH
REF_FRAME      = TEME
TIME_SYSTEM    = UTC
MEAN_ELEMENT_THEORY = SGP/SGP4

EPOCH          = 2026-03-20T14:12:38.552832
MEAN_MOTION    = 15.61215573
ECCENTRICITY   = .0005638
INCLINATION    = 41.4664
RA_OF_ASC_NODE = 141.7960
ARG_OF_PERICENTER = 341.7172
MEAN_ANOMALY   = 18.3464

EPHEMERIS_TYPE = 0
CLASSIFICATION_TYPE = U
NORAD_CAT_ID   = 48274
ELEMENT_SET_NO = 999
REV_AT_EPOCH   = 27931
BSTAR          = .20859E-3
MEAN_MOTION_DOT = .1789E-3
MEAN_MOTION_DDOT = 0

CCSDS_OMM_VERS = 2.0
CREATION_DATE  = 
ORIGINATOR     = 

OBJECT_NAME    = ISS (NAUKA)
OBJECT_ID      = 2021-066A
CENTER_NAME    = EARTH
REF_FRAME      = TEME
TIME_SYSTEM    = UTC
MEAN_ELEMENT_THEORY = SGP/SGP4

EPOCH          = 2026-03-20T20:55:56.726976
MEAN_MOTION    = 15.48402839
ECCENTRICITY   = .0006366
INCLINATION    = 51.6346
RA_OF_ASC_NODE = 17.0785
ARG_OF_PERICENTER = 213.2716
MEAN_ANOMALY   = 146.7873

EPHEMERIS_TYPE = 0
CLASSIFICATION_TYPE = U
NORAD_CAT_ID   = 49044
ELEMENT_SET_NO = 999
REV_AT_EPOCH   = 55786
BSTAR          = .18573E-3
MEAN_MOTION_DOT = .959E-4
MEAN_MOTION_DDOT = 0

CCSDS_OMM_VERS = 2.0
CREATION_DATE  = 
ORIGINATOR     = 

OBJECT_NAME    = FREGAT DEB
OBJECT_ID      = 2011-037PF
CENTER_NAME    = EARTH
REF_FRAME      = TEME
TIME_SYSTEM    = UTC
MEAN_ELEMENT_THEORY = SGP/SGP4

EPOCH          = 2026-03-20T19:17:49.742880
MEAN_MOTION    = 12.40526679
ECCENTRICITY   = .0963855
INCLINATION    = 51.6498
RA_OF_ASC_NODE = 267.3886
ARG_OF_PERICENTER = 84.8727
MEAN_ANOMALY   = 286.1251

EPHEMERIS_TYPE = 0
CLASSIFICATION_TYPE = U
NORAD_CAT_ID   = 49271
ELEMENT_SET_NO = 999
REV_AT_EPOCH   = 21407
BSTAR          = .20135E-1
MEAN_MOTION_DOT = .14252E-3
MEAN_MOTION_DDOT = 0

CCSDS_OMM_VERS = 2.0
CREATION_DATE  = 
ORIGINATOR     = 

OBJECT_NAME    = CSS (WENTIAN)
OBJECT_ID      = 2022-085A
CENTER_NAME    = EARTH
REF_FRAME      = TEME
TIME_SYSTEM    = UTC
MEAN_ELEMENT_THEORY = SGP/SGP4

EPOCH          = 2026-03-20T14:12:38.552832
MEAN_MOTION    = 15.61215573
ECCENTRICITY   = .0005638
INCLINATION    = 41.4664
RA_OF_ASC_NODE = 141.7960
ARG_OF_PERICENTER = 341.7172
MEAN_ANOMALY   = 18.3464

EPHEMERIS_TYPE = 0
CLASSIFICATION_TYPE = U
NORAD_CAT_ID   = 53239
ELEMENT_SET_NO = 999
REV_AT_EPOCH   = 27931
BSTAR          = .20859E-3
MEAN_MOTION_DOT = .1789E-3
MEAN_MOTION_DDOT = 0

CCSDS_OMM_VERS = 2.0
CREATION_DATE  = 
ORIGINATOR     = 

OBJECT_NAME    = CSS (MENGTIAN)
OBJECT_ID      = 2022-143A
CENTER_NAME    = EARTH
REF_FRAME      = TEME
TIME_SYSTEM    = UTC
MEAN_ELEMENT_THEORY = SGP/SGP4

EPOCH          = 2026-03-20T14:12:38.552832
MEAN_MOTION    = 15.61215573
ECCENTRICITY   = .0005638
INCLINATION    = 41.4664
RA_OF_ASC_NODE = 141.7960
ARG_OF_PERICENTER = 341.7172
MEAN_ANOMALY   = 18.3464

EPHEMERIS_TYPE = 0
CLASSIFICATION_TYPE = U
NORAD_CAT_ID   = 54216
ELEMENT_SET_NO = 999
REV_AT_EPOCH   = 27931
BSTAR          = .20859E-3
MEAN_MOTION_DOT = .1789E-3
MEAN_MOTION_DDOT = 0

CCSDS_OMM_VERS = 2.0
CREATION_DATE  = 
ORIGINATOR     = 

OBJECT_NAME    = TIANZHOU-9
OBJECT_ID      = 2025-149A
CENTER_NAME    = EARTH
REF_FRAME      = TEME
TIME_SYSTEM    = UTC
MEAN_ELEMENT_THEORY = SGP/SGP4

EPOCH          = 2026-03-20T14:12:38.552832
MEAN_MOTION    = 15.61215573
ECCENTRICITY   = .0005638
INCLINATION    = 41.4664
RA_OF_ASC_NODE = 141.7960
ARG_OF_PERICENTER = 341.7172
MEAN_ANOMALY   = 18.3464

EPHEMERIS_TYPE = 0
CLASSIFICATION_TYPE = U
NORAD_CAT_ID   = 64786
ELEMENT_SET_NO = 999
REV_AT_EPOCH   = 27931
BSTAR          = .20859E-3
MEAN_MOTION_DOT = .1789E-3
MEAN_MOTION_DDOT = 0

CCSDS_OMM_VERS = 2.0
CREATION_DATE  = 
ORIGINATOR     = 

OBJECT_NAME    = PROGRESS-MS 32
OBJECT_ID      = 2025-204A
CENTER_NAME    = EARTH
REF_FRAME      = TEME
TIME_SYSTEM    = UTC
MEAN_ELEMENT_THEORY = SGP/SGP4

EPOCH          = 2026-03-20T06:59:30.191424
MEAN_MOTION    = 15.48390544
ECCENTRICITY   = .00063545
INCLINATION    = 51.6345
RA_OF_ASC_NODE = 19.9496
ARG_OF_PERICENTER = 211.1385
MEAN_ANOMALY   = 148.9228

EPHEMERIS_TYPE = 0
CLASSIFICATION_TYPE = U
NORAD_CAT_ID   = 65586
ELEMENT_SET_NO = 999
REV_AT_EPOCH   = 55450
BSTAR          = .16183163E-3
MEAN_MOTION_DOT = .8293E-4
MEAN_MOTION_DDOT = 0

CCSDS_OMM_VERS = 2.0
CREATION_DATE  = 
ORIGINATOR     = 

OBJECT_NAME    = YOTSUBA-KULOVER
OBJECT_ID      = 1998-067XN
CENTER_NAME    = EARTH
REF_FRAME      = TEME
TIME_SYSTEM    = UTC
MEAN_ELEMENT_THEORY = SGP/SGP4

EPOCH          = 2026-03-20T11:59:23.712000
MEAN_MOTION    = 15.85629123
ECCENTRICITY   = .00049634
INCLINATION    = 51.6209
RA_OF_ASC_NODE = 1.0064
ARG_OF_PERICENTER = 149.9063
MEAN_ANOMALY   = 210.2227

EPHEMERIS_TYPE = 0
CLASSIFICATION_TYPE = U
NORAD_CAT_ID   = 65941
ELEMENT_SET_NO = 999
REV_AT_EPOCH   = 2521
BSTAR          = .97022392E-3
MEAN_MOTION_DOT = .246449E-2
MEAN_MOTION_DDOT = 0

CCSDS_OMM_VERS = 2.0
CREATION_DATE  = 
ORIGINATOR     = 

OBJECT_NAME    = BOTAN
OBJECT_ID      = 1998-067XQ
CENTER_NAME    = EARTH
REF_FRAME      = TEME
TIME_SYSTEM    = UTC
MEAN_ELEMENT_THEORY = SGP/SGP4

EPOCH          = 2026-03-20T12:10:12.868896
MEAN_MOTION    = 15.85072948
ECCENTRICITY   = .00056785
INCLINATION    = 51.6238
RA_OF_ASC_NODE = 1.0781
ARG_OF_PERICENTER = 150.6448
MEAN_ANOMALY   = 209.4876

EPHEMERIS_TYPE = 0
CLASSIFICATION_TYPE = U
NORAD_CAT_ID   = 65943
ELEMENT_SET_NO = 999
REV_AT_EPOCH   = 2521
BSTAR          = .96150965E-3
MEAN_MOTION_DOT = .237566E-2
MEAN_MOTION_DDOT = 0

CCSDS_OMM_VERS = 2.0
CREATION_DATE  = 
ORIGINATOR     = 

OBJECT_NAME    = HRC MONOBLOCK CAMERA
OBJECT_ID      = 1998-067XR
CENTER_NAME    = EARTH
REF_FRAME      = TEME
TIME_SYSTEM    = UTC
MEAN_ELEMENT_THEORY = SGP/SGP4

EPOCH          = 2026-03-20T12:10:05.365056
MEAN_MOTION    = 15.63304231
ECCENTRICITY   = .00038707
INCLINATION    = 51.6296
RA_OF_ASC_NODE = 10.8896
ARG_OF_PERICENTER = 142.6228
MEAN_ANOMALY   = 217.5036

EPHEMERIS_TYPE = 0
CLASSIFICATION_TYPE = U
NORAD_CAT_ID   = 66052
ELEMENT_SET_NO = 999
REV_AT_EPOCH   = 2408
BSTAR          = .45023736E-3
MEAN_MOTION_DOT = .41869E-3
MEAN_MOTION_DDOT = 0

